[Satellite]
VERSION=1.1
NAME=ST5-A
NICKNAME=ST5-A
TLE1=1 28980U 06008A   11059.64109234  .00004674  00000-0  25837-3 0  5384
TLE2=2 28980 105.6977  72.6615 2330365 202.0005 146.2329 10.67405818191088
